<?xml version="1.0" encoding="UTF-8"?>
<gpx version="1.1" creator="blizzard-tracker" xmlns="http://www.topografix.com/GPX/1/1">
  <metadata>
    <name>Bank of America Chicago Marathon — 2026 course</name>
    <desc>Official Chicago Marathon route (Grant Park loop course). Source: distanzrunning/gpx (Strava route 3274142304814937750, 2024 edition — 2026 course unchanged per chicagomarathon.com). Elevation in meters from source trace.</desc>
  </metadata>
  <trk>
    <name>Bank of America Chicago Marathon — 42.195 km</name>
    <trkseg>
      <trkpt lat="41.88074" lon="-87.62068"><ele>183.1</ele></trkpt>
      <trkpt lat="41.88075" lon="-87.62079"><ele>183.0</ele></trkpt>
      <trkpt lat="41.88087" lon="-87.62080"><ele>182.4</ele></trkpt>
      <trkpt lat="41.88098" lon="-87.62072"><ele>182.6</ele></trkpt>
      <trkpt lat="41.88133" lon="-87.62072"><ele>182.1</ele></trkpt>
      <trkpt lat="41.88197" lon="-87.62065"><ele>183.2</ele></trkpt>
      <trkpt lat="41.88261" lon="-87.62058"><ele>180.9</ele></trkpt>
      <trkpt lat="41.88343" lon="-87.62058"><ele>180.9</ele></trkpt>
      <trkpt lat="41.88425" lon="-87.62058"><ele>180.9</ele></trkpt>
      <trkpt lat="41.88506" lon="-87.62058"><ele>177.2</ele></trkpt>
      <trkpt lat="41.88588" lon="-87.62058"><ele>177.2</ele></trkpt>
      <trkpt lat="41.88670" lon="-87.62058"><ele>177.2</ele></trkpt>
      <trkpt lat="41.88755" lon="-87.62052"><ele>177.2</ele></trkpt>
      <trkpt lat="41.88840" lon="-87.62047"><ele>177.2</ele></trkpt>
      <trkpt lat="41.88926" lon="-87.62041"><ele>179.8</ele></trkpt>
      <trkpt lat="41.89011" lon="-87.62035"><ele>179.8</ele></trkpt>
      <trkpt lat="41.89096" lon="-87.62030"><ele>179.8</ele></trkpt>
      <trkpt lat="41.89181" lon="-87.62024"><ele>179.8</ele></trkpt>
      <trkpt lat="41.89177" lon="-87.62125"><ele>179.8</ele></trkpt>
      <trkpt lat="41.89174" lon="-87.62227"><ele>179.8</ele></trkpt>
      <trkpt lat="41.89170" lon="-87.62328"><ele>178.8</ele></trkpt>
      <trkpt lat="41.89167" lon="-87.62430"><ele>178.8</ele></trkpt>
      <trkpt lat="41.89163" lon="-87.62531"><ele>178.8</ele></trkpt>
      <trkpt lat="41.89164" lon="-87.62623"><ele>178.8</ele></trkpt>
      <trkpt lat="41.89164" lon="-87.62716"><ele>181.0</ele></trkpt>
      <trkpt lat="41.89165" lon="-87.62808"><ele>181.0</ele></trkpt>
      <trkpt lat="41.89166" lon="-87.62808"><ele>181.0</ele></trkpt>
      <trkpt lat="41.89105" lon="-87.62806"><ele>181.3</ele></trkpt>
      <trkpt lat="41.89045" lon="-87.62805"><ele>181.8</ele></trkpt>
      <trkpt lat="41.88997" lon="-87.62802"><ele>182.3</ele></trkpt>
      <trkpt lat="41.88950" lon="-87.62800"><ele>182.6</ele></trkpt>
      <trkpt lat="41.88917" lon="-87.62802"><ele>183.0</ele></trkpt>
      <trkpt lat="41.88865" lon="-87.62801"><ele>185.3</ele></trkpt>
      <trkpt lat="41.88853" lon="-87.62796"><ele>185.3</ele></trkpt>
      <trkpt lat="41.88821" lon="-87.62794"><ele>186.1</ele></trkpt>
      <trkpt lat="41.88785" lon="-87.62794"><ele>186.6</ele></trkpt>
      <trkpt lat="41.88739" lon="-87.62792"><ele>186.2</ele></trkpt>
      <trkpt lat="41.88694" lon="-87.62790"><ele>184.4</ele></trkpt>
      <trkpt lat="41.88639" lon="-87.62789"><ele>183.8</ele></trkpt>
      <trkpt lat="41.88585" lon="-87.62788"><ele>183.0</ele></trkpt>
      <trkpt lat="41.88575" lon="-87.62794"><ele>182.9</ele></trkpt>
      <trkpt lat="41.88502" lon="-87.62792"><ele>182.9</ele></trkpt>
      <trkpt lat="41.88428" lon="-87.62790"><ele>182.8</ele></trkpt>
      <trkpt lat="41.88355" lon="-87.62788"><ele>182.9</ele></trkpt>
      <trkpt lat="41.88285" lon="-87.62785"><ele>182.6</ele></trkpt>
      <trkpt lat="41.88214" lon="-87.62782"><ele>182.5</ele></trkpt>
      <trkpt lat="41.88195" lon="-87.62779"><ele>182.6</ele></trkpt>
      <trkpt lat="41.88120" lon="-87.62777"><ele>182.6</ele></trkpt>
      <trkpt lat="41.88045" lon="-87.62775"><ele>182.8</ele></trkpt>
      <trkpt lat="41.87971" lon="-87.62774"><ele>182.8</ele></trkpt>
      <trkpt lat="41.87896" lon="-87.62772"><ele>182.7</ele></trkpt>
      <trkpt lat="41.87821" lon="-87.62770"><ele>182.7</ele></trkpt>
      <trkpt lat="41.87818" lon="-87.62850"><ele>182.1</ele></trkpt>
      <trkpt lat="41.87817" lon="-87.62941"><ele>182.3</ele></trkpt>
      <trkpt lat="41.87816" lon="-87.63032"><ele>182.3</ele></trkpt>
      <trkpt lat="41.87815" lon="-87.63122"><ele>182.1</ele></trkpt>
      <trkpt lat="41.87814" lon="-87.63213"><ele>182.3</ele></trkpt>
      <trkpt lat="41.87873" lon="-87.63216"><ele>183.6</ele></trkpt>
      <trkpt lat="41.87933" lon="-87.63216"><ele>183.4</ele></trkpt>
      <trkpt lat="41.88004" lon="-87.63220"><ele>183.5</ele></trkpt>
      <trkpt lat="41.88067" lon="-87.63222"><ele>183.3</ele></trkpt>
      <trkpt lat="41.88130" lon="-87.63224"><ele>183.5</ele></trkpt>
      <trkpt lat="41.88194" lon="-87.63225"><ele>183.1</ele></trkpt>
      <trkpt lat="41.88257" lon="-87.63226"><ele>183.5</ele></trkpt>
      <trkpt lat="41.88257" lon="-87.63240"><ele>183.0</ele></trkpt>
      <trkpt lat="41.88324" lon="-87.63242"><ele>182.5</ele></trkpt>
      <trkpt lat="41.88330" lon="-87.63249"><ele>182.7</ele></trkpt>
      <trkpt lat="41.88389" lon="-87.63251"><ele>183.2</ele></trkpt>
      <trkpt lat="41.88447" lon="-87.63254"><ele>182.7</ele></trkpt>
      <trkpt lat="41.88528" lon="-87.63255"><ele>183.2</ele></trkpt>
      <trkpt lat="41.88609" lon="-87.63257"><ele>183.6</ele></trkpt>
      <trkpt lat="41.88674" lon="-87.63257"><ele>183.7</ele></trkpt>
      <trkpt lat="41.88681" lon="-87.63250"><ele>183.7</ele></trkpt>
      <trkpt lat="41.88740" lon="-87.63251"><ele>185.3</ele></trkpt>
      <trkpt lat="41.88800" lon="-87.63252"><ele>185.7</ele></trkpt>
      <trkpt lat="41.88811" lon="-87.63246"><ele>185.1</ele></trkpt>
      <trkpt lat="41.88888" lon="-87.63243"><ele>183.3</ele></trkpt>
      <trkpt lat="41.88944" lon="-87.63245"><ele>182.5</ele></trkpt>
      <trkpt lat="41.89000" lon="-87.63247"><ele>182.2</ele></trkpt>
      <trkpt lat="41.89075" lon="-87.63249"><ele>182.3</ele></trkpt>
      <trkpt lat="41.89151" lon="-87.63251"><ele>182.1</ele></trkpt>
      <trkpt lat="41.89170" lon="-87.63250"><ele>182.1</ele></trkpt>
      <trkpt lat="41.89233" lon="-87.63252"><ele>182.6</ele></trkpt>
      <trkpt lat="41.89297" lon="-87.63253"><ele>182.7</ele></trkpt>
      <trkpt lat="41.89360" lon="-87.63255"><ele>182.7</ele></trkpt>
      <trkpt lat="41.89432" lon="-87.63257"><ele>182.7</ele></trkpt>
      <trkpt lat="41.89504" lon="-87.63259"><ele>182.6</ele></trkpt>
      <trkpt lat="41.89577" lon="-87.63262"><ele>182.9</ele></trkpt>
      <trkpt lat="41.89649" lon="-87.63264"><ele>182.4</ele></trkpt>
      <trkpt lat="41.89649" lon="-87.63279"><ele>182.7</ele></trkpt>
      <trkpt lat="41.89732" lon="-87.63281"><ele>183.4</ele></trkpt>
      <trkpt lat="41.89815" lon="-87.63284"><ele>183.6</ele></trkpt>
      <trkpt lat="41.89897" lon="-87.63286"><ele>183.3</ele></trkpt>
      <trkpt lat="41.89980" lon="-87.63288"><ele>183.2</ele></trkpt>
      <trkpt lat="41.90063" lon="-87.63291"><ele>182.9</ele></trkpt>
      <trkpt lat="41.90146" lon="-87.63293"><ele>183.3</ele></trkpt>
      <trkpt lat="41.90228" lon="-87.63296"><ele>183.6</ele></trkpt>
      <trkpt lat="41.90311" lon="-87.63298"><ele>183.6</ele></trkpt>
      <trkpt lat="41.90397" lon="-87.63301"><ele>183.0</ele></trkpt>
      <trkpt lat="41.90482" lon="-87.63304"><ele>183.6</ele></trkpt>
      <trkpt lat="41.90568" lon="-87.63307"><ele>183.4</ele></trkpt>
      <trkpt lat="41.90653" lon="-87.63309"><ele>183.6</ele></trkpt>
      <trkpt lat="41.90739" lon="-87.63312"><ele>183.6</ele></trkpt>
      <trkpt lat="41.90824" lon="-87.63315"><ele>183.7</ele></trkpt>
      <trkpt lat="41.90910" lon="-87.63318"><ele>183.6</ele></trkpt>
      <trkpt lat="41.90991" lon="-87.63320"><ele>183.7</ele></trkpt>
      <trkpt lat="41.91071" lon="-87.63322"><ele>183.7</ele></trkpt>
      <trkpt lat="41.91152" lon="-87.63324"><ele>183.5</ele></trkpt>
      <trkpt lat="41.91215" lon="-87.63324"><ele>183.9</ele></trkpt>
      <trkpt lat="41.91279" lon="-87.63324"><ele>183.4</ele></trkpt>
      <trkpt lat="41.91290" lon="-87.63320"><ele>183.4</ele></trkpt>
      <trkpt lat="41.91307" lon="-87.63306"><ele>183.3</ele></trkpt>
      <trkpt lat="41.91316" lon="-87.63286"><ele>183.2</ele></trkpt>
      <trkpt lat="41.91333" lon="-87.63244"><ele>183.3</ele></trkpt>
      <trkpt lat="41.91345" lon="-87.63194"><ele>183.7</ele></trkpt>
      <trkpt lat="41.91347" lon="-87.63171"><ele>183.4</ele></trkpt>
      <trkpt lat="41.91392" lon="-87.63177"><ele>183.6</ele></trkpt>
      <trkpt lat="41.91408" lon="-87.63183"><ele>183.7</ele></trkpt>
      <trkpt lat="41.91423" lon="-87.63191"><ele>183.7</ele></trkpt>
      <trkpt lat="41.91454" lon="-87.63220"><ele>183.9</ele></trkpt>
      <trkpt lat="41.91504" lon="-87.63271"><ele>183.9</ele></trkpt>
      <trkpt lat="41.91552" lon="-87.63288"><ele>183.8</ele></trkpt>
      <trkpt lat="41.91586" lon="-87.63313"><ele>183.8</ele></trkpt>
      <trkpt lat="41.91604" lon="-87.63331"><ele>183.6</ele></trkpt>
      <trkpt lat="41.91642" lon="-87.63374"><ele>183.5</ele></trkpt>
      <trkpt lat="41.91672" lon="-87.63397"><ele>183.2</ele></trkpt>
      <trkpt lat="41.91700" lon="-87.63414"><ele>183.0</ele></trkpt>
      <trkpt lat="41.91716" lon="-87.63420"><ele>183.0</ele></trkpt>
      <trkpt lat="41.91792" lon="-87.63434"><ele>182.7</ele></trkpt>
      <trkpt lat="41.91836" lon="-87.63444"><ele>182.4</ele></trkpt>
      <trkpt lat="41.91887" lon="-87.63460"><ele>182.1</ele></trkpt>
      <trkpt lat="41.91906" lon="-87.63469"><ele>182.0</ele></trkpt>
      <trkpt lat="41.91933" lon="-87.63491"><ele>182.3</ele></trkpt>
      <trkpt lat="41.91974" lon="-87.63535"><ele>183.1</ele></trkpt>
      <trkpt lat="41.91986" lon="-87.63544"><ele>182.6</ele></trkpt>
      <trkpt lat="41.92018" lon="-87.63559"><ele>182.2</ele></trkpt>
      <trkpt lat="41.92036" lon="-87.63563"><ele>182.1</ele></trkpt>
      <trkpt lat="41.92118" lon="-87.63568"><ele>181.7</ele></trkpt>
      <trkpt lat="41.92200" lon="-87.63574"><ele>181.4</ele></trkpt>
      <trkpt lat="41.92260" lon="-87.63576"><ele>181.0</ele></trkpt>
      <trkpt lat="41.92321" lon="-87.63577"><ele>181.2</ele></trkpt>
      <trkpt lat="41.92381" lon="-87.63579"><ele>181.3</ele></trkpt>
      <trkpt lat="41.92428" lon="-87.63581"><ele>181.0</ele></trkpt>
      <trkpt lat="41.92476" lon="-87.63583"><ele>181.1</ele></trkpt>
      <trkpt lat="41.92506" lon="-87.63585"><ele>181.1</ele></trkpt>
      <trkpt lat="41.92567" lon="-87.63606"><ele>181.1</ele></trkpt>
      <trkpt lat="41.92568" lon="-87.63511"><ele>181.0</ele></trkpt>
      <trkpt lat="41.92569" lon="-87.63416"><ele>179.9</ele></trkpt>
      <trkpt lat="41.92574" lon="-87.63363"><ele>179.6</ele></trkpt>
      <trkpt lat="41.92624" lon="-87.63391"><ele>179.5</ele></trkpt>
      <trkpt lat="41.92667" lon="-87.63414"><ele>179.5</ele></trkpt>
      <trkpt lat="41.92710" lon="-87.63439"><ele>179.6</ele></trkpt>
      <trkpt lat="41.92753" lon="-87.63465"><ele>179.6</ele></trkpt>
      <trkpt lat="41.92816" lon="-87.63505"><ele>179.5</ele></trkpt>
      <trkpt lat="41.92878" lon="-87.63545"><ele>179.8</ele></trkpt>
      <trkpt lat="41.92943" lon="-87.63590"><ele>180.2</ele></trkpt>
      <trkpt lat="41.93008" lon="-87.63636"><ele>180.4</ele></trkpt>
      <trkpt lat="41.93061" lon="-87.63675"><ele>180.6</ele></trkpt>
      <trkpt lat="41.93113" lon="-87.63714"><ele>180.6</ele></trkpt>
      <trkpt lat="41.93155" lon="-87.63755"><ele>180.9</ele></trkpt>
      <trkpt lat="41.93197" lon="-87.63819"><ele>182.0</ele></trkpt>
      <trkpt lat="41.93239" lon="-87.63884"><ele>182.3</ele></trkpt>
      <trkpt lat="41.93251" lon="-87.63897"><ele>181.8</ele></trkpt>
      <trkpt lat="41.93272" lon="-87.63918"><ele>181.7</ele></trkpt>
      <trkpt lat="41.93291" lon="-87.63931"><ele>181.5</ele></trkpt>
      <trkpt lat="41.93367" lon="-87.63933"><ele>181.3</ele></trkpt>
      <trkpt lat="41.93442" lon="-87.63936"><ele>181.1</ele></trkpt>
      <trkpt lat="41.93442" lon="-87.63949"><ele>181.1</ele></trkpt>
      <trkpt lat="41.93524" lon="-87.63952"><ele>181.1</ele></trkpt>
      <trkpt lat="41.93607" lon="-87.63955"><ele>180.9</ele></trkpt>
      <trkpt lat="41.93689" lon="-87.63958"><ele>180.9</ele></trkpt>
      <trkpt lat="41.93772" lon="-87.63960"><ele>181.1</ele></trkpt>
      <trkpt lat="41.93854" lon="-87.63963"><ele>181.2</ele></trkpt>
      <trkpt lat="41.93937" lon="-87.63966"><ele>181.1</ele></trkpt>
      <trkpt lat="41.94019" lon="-87.63969"><ele>181.0</ele></trkpt>
      <trkpt lat="41.94021" lon="-87.63955"><ele>180.8</ele></trkpt>
      <trkpt lat="41.94071" lon="-87.63956"><ele>181.2</ele></trkpt>
      <trkpt lat="41.94120" lon="-87.63958"><ele>181.0</ele></trkpt>
      <trkpt lat="41.94151" lon="-87.63965"><ele>181.1</ele></trkpt>
      <trkpt lat="41.94188" lon="-87.63978"><ele>181.2</ele></trkpt>
      <trkpt lat="41.94237" lon="-87.63998"><ele>180.8</ele></trkpt>
      <trkpt lat="41.94314" lon="-87.64039"><ele>180.5</ele></trkpt>
      <trkpt lat="41.94391" lon="-87.64080"><ele>180.9</ele></trkpt>
      <trkpt lat="41.94468" lon="-87.64122"><ele>180.9</ele></trkpt>
      <trkpt lat="41.94545" lon="-87.64163"><ele>180.8</ele></trkpt>
      <trkpt lat="41.94617" lon="-87.64204"><ele>181.1</ele></trkpt>
      <trkpt lat="41.94688" lon="-87.64244"><ele>181.2</ele></trkpt>
      <trkpt lat="41.94760" lon="-87.64285"><ele>181.1</ele></trkpt>
      <trkpt lat="41.94816" lon="-87.64317"><ele>181.0</ele></trkpt>
      <trkpt lat="41.94871" lon="-87.64350"><ele>180.7</ele></trkpt>
      <trkpt lat="41.94940" lon="-87.64392"><ele>180.9</ele></trkpt>
      <trkpt lat="41.95008" lon="-87.64433"><ele>180.7</ele></trkpt>
      <trkpt lat="41.95077" lon="-87.64475"><ele>180.8</ele></trkpt>
      <trkpt lat="41.95147" lon="-87.64499"><ele>181.0</ele></trkpt>
      <trkpt lat="41.95168" lon="-87.64503"><ele>181.1</ele></trkpt>
      <trkpt lat="41.95225" lon="-87.64505"><ele>181.0</ele></trkpt>
      <trkpt lat="41.95253" lon="-87.64503"><ele>181.0</ele></trkpt>
      <trkpt lat="41.95270" lon="-87.64517"><ele>181.0</ele></trkpt>
      <trkpt lat="41.95291" lon="-87.64539"><ele>181.0</ele></trkpt>
      <trkpt lat="41.95298" lon="-87.64560"><ele>181.0</ele></trkpt>
      <trkpt lat="41.95292" lon="-87.64661"><ele>180.6</ele></trkpt>
      <trkpt lat="41.95287" lon="-87.64762"><ele>180.8</ele></trkpt>
      <trkpt lat="41.95281" lon="-87.64863"><ele>181.0</ele></trkpt>
      <trkpt lat="41.95275" lon="-87.64964"><ele>181.2</ele></trkpt>
      <trkpt lat="41.95197" lon="-87.64963"><ele>181.2</ele></trkpt>
      <trkpt lat="41.95119" lon="-87.64962"><ele>181.3</ele></trkpt>
      <trkpt lat="41.95052" lon="-87.64920"><ele>181.2</ele></trkpt>
      <trkpt lat="41.94984" lon="-87.64879"><ele>180.8</ele></trkpt>
      <trkpt lat="41.94917" lon="-87.64837"><ele>180.5</ele></trkpt>
      <trkpt lat="41.94856" lon="-87.64801"><ele>180.7</ele></trkpt>
      <trkpt lat="41.94796" lon="-87.64764"><ele>180.6</ele></trkpt>
      <trkpt lat="41.94735" lon="-87.64728"><ele>180.5</ele></trkpt>
      <trkpt lat="41.94667" lon="-87.64686"><ele>180.5</ele></trkpt>
      <trkpt lat="41.94598" lon="-87.64644"><ele>180.4</ele></trkpt>
      <trkpt lat="41.94530" lon="-87.64602"><ele>180.6</ele></trkpt>
      <trkpt lat="41.94461" lon="-87.64561"><ele>180.5</ele></trkpt>
      <trkpt lat="41.94393" lon="-87.64519"><ele>180.6</ele></trkpt>
      <trkpt lat="41.94324" lon="-87.64477"><ele>180.6</ele></trkpt>
      <trkpt lat="41.94277" lon="-87.64450"><ele>180.7</ele></trkpt>
      <trkpt lat="41.94191" lon="-87.64447"><ele>180.8</ele></trkpt>
      <trkpt lat="41.94106" lon="-87.64444"><ele>180.9</ele></trkpt>
      <trkpt lat="41.94054" lon="-87.64441"><ele>180.7</ele></trkpt>
      <trkpt lat="41.94003" lon="-87.64439"><ele>180.7</ele></trkpt>
      <trkpt lat="41.93923" lon="-87.64437"><ele>180.5</ele></trkpt>
      <trkpt lat="41.93843" lon="-87.64434"><ele>180.4</ele></trkpt>
      <trkpt lat="41.93763" lon="-87.64432"><ele>180.4</ele></trkpt>
      <trkpt lat="41.93682" lon="-87.64429"><ele>180.4</ele></trkpt>
      <trkpt lat="41.93602" lon="-87.64427"><ele>180.3</ele></trkpt>
      <trkpt lat="41.93522" lon="-87.64424"><ele>180.5</ele></trkpt>
      <trkpt lat="41.93442" lon="-87.64422"><ele>180.6</ele></trkpt>
      <trkpt lat="41.93425" lon="-87.64425"><ele>180.7</ele></trkpt>
      <trkpt lat="41.93384" lon="-87.64454"><ele>181.4</ele></trkpt>
      <trkpt lat="41.93354" lon="-87.64470"><ele>181.6</ele></trkpt>
      <trkpt lat="41.93279" lon="-87.64491"><ele>182.9</ele></trkpt>
      <trkpt lat="41.93236" lon="-87.64480"><ele>182.9</ele></trkpt>
      <trkpt lat="41.93214" lon="-87.64472"><ele>183.1</ele></trkpt>
      <trkpt lat="41.93185" lon="-87.64458"><ele>183.1</ele></trkpt>
      <trkpt lat="41.93119" lon="-87.64419"><ele>183.0</ele></trkpt>
      <trkpt lat="41.93053" lon="-87.64380"><ele>182.9</ele></trkpt>
      <trkpt lat="41.93012" lon="-87.64359"><ele>183.1</ele></trkpt>
      <trkpt lat="41.93000" lon="-87.64344"><ele>183.1</ele></trkpt>
      <trkpt lat="41.92969" lon="-87.64295"><ele>183.1</ele></trkpt>
      <trkpt lat="41.92963" lon="-87.64288"><ele>183.1</ele></trkpt>
      <trkpt lat="41.92887" lon="-87.64243"><ele>183.5</ele></trkpt>
      <trkpt lat="41.92811" lon="-87.64198"><ele>183.4</ele></trkpt>
      <trkpt lat="41.92734" lon="-87.64153"><ele>183.8</ele></trkpt>
      <trkpt lat="41.92658" lon="-87.64108"><ele>183.7</ele></trkpt>
      <trkpt lat="41.92582" lon="-87.64063"><ele>183.7</ele></trkpt>
      <trkpt lat="41.92541" lon="-87.64036"><ele>183.7</ele></trkpt>
      <trkpt lat="41.92499" lon="-87.64010"><ele>183.8</ele></trkpt>
      <trkpt lat="41.92428" lon="-87.63967"><ele>184.0</ele></trkpt>
      <trkpt lat="41.92356" lon="-87.63924"><ele>184.1</ele></trkpt>
      <trkpt lat="41.92285" lon="-87.63881"><ele>184.1</ele></trkpt>
      <trkpt lat="41.92285" lon="-87.63882"><ele>184.1</ele></trkpt>
      <trkpt lat="41.92241" lon="-87.63854"><ele>184.1</ele></trkpt>
      <trkpt lat="41.92196" lon="-87.63827"><ele>184.0</ele></trkpt>
      <trkpt lat="41.92195" lon="-87.63894"><ele>183.7</ele></trkpt>
      <trkpt lat="41.92111" lon="-87.63891"><ele>183.4</ele></trkpt>
      <trkpt lat="41.92027" lon="-87.63888"><ele>183.2</ele></trkpt>
      <trkpt lat="41.91943" lon="-87.63885"><ele>183.1</ele></trkpt>
      <trkpt lat="41.91858" lon="-87.63883"><ele>182.9</ele></trkpt>
      <trkpt lat="41.91774" lon="-87.63880"><ele>182.8</ele></trkpt>
      <trkpt lat="41.91690" lon="-87.63877"><ele>182.3</ele></trkpt>
      <trkpt lat="41.91690" lon="-87.63868"><ele>182.4</ele></trkpt>
      <trkpt lat="41.91637" lon="-87.63865"><ele>182.3</ele></trkpt>
      <trkpt lat="41.91556" lon="-87.63863"><ele>182.2</ele></trkpt>
      <trkpt lat="41.91474" lon="-87.63862"><ele>182.0</ele></trkpt>
      <trkpt lat="41.91403" lon="-87.63859"><ele>182.1</ele></trkpt>
      <trkpt lat="41.91332" lon="-87.63857"><ele>181.8</ele></trkpt>
      <trkpt lat="41.91260" lon="-87.63854"><ele>181.6</ele></trkpt>
      <trkpt lat="41.91189" lon="-87.63852"><ele>181.6</ele></trkpt>
      <trkpt lat="41.91190" lon="-87.63852"><ele>181.6</ele></trkpt>
      <trkpt lat="41.91104" lon="-87.63849"><ele>181.3</ele></trkpt>
      <trkpt lat="41.91105" lon="-87.63754"><ele>181.5</ele></trkpt>
      <trkpt lat="41.91107" lon="-87.63660"><ele>181.6</ele></trkpt>
      <trkpt lat="41.91108" lon="-87.63565"><ele>181.9</ele></trkpt>
      <trkpt lat="41.91109" lon="-87.63470"><ele>182.0</ele></trkpt>
      <trkpt lat="41.91048" lon="-87.63468"><ele>181.8</ele></trkpt>
      <trkpt lat="41.90986" lon="-87.63466"><ele>181.8</ele></trkpt>
      <trkpt lat="41.90925" lon="-87.63464"><ele>181.7</ele></trkpt>
      <trkpt lat="41.90848" lon="-87.63462"><ele>181.6</ele></trkpt>
      <trkpt lat="41.90771" lon="-87.63459"><ele>181.5</ele></trkpt>
      <trkpt lat="41.90694" lon="-87.63457"><ele>181.2</ele></trkpt>
      <trkpt lat="41.90616" lon="-87.63455"><ele>181.2</ele></trkpt>
      <trkpt lat="41.90539" lon="-87.63453"><ele>181.0</ele></trkpt>
      <trkpt lat="41.90462" lon="-87.63450"><ele>181.0</ele></trkpt>
      <trkpt lat="41.90385" lon="-87.63448"><ele>181.4</ele></trkpt>
      <trkpt lat="41.90304" lon="-87.63445"><ele>181.5</ele></trkpt>
      <trkpt lat="41.90223" lon="-87.63442"><ele>181.6</ele></trkpt>
      <trkpt lat="41.90143" lon="-87.63439"><ele>181.6</ele></trkpt>
      <trkpt lat="41.90062" lon="-87.63436"><ele>181.3</ele></trkpt>
      <trkpt lat="41.89981" lon="-87.63433"><ele>181.6</ele></trkpt>
      <trkpt lat="41.89900" lon="-87.63430"><ele>182.0</ele></trkpt>
      <trkpt lat="41.89820" lon="-87.63427"><ele>181.7</ele></trkpt>
      <trkpt lat="41.89739" lon="-87.63424"><ele>181.5</ele></trkpt>
      <trkpt lat="41.89658" lon="-87.63421"><ele>181.4</ele></trkpt>
      <trkpt lat="41.89574" lon="-87.63419"><ele>181.4</ele></trkpt>
      <trkpt lat="41.89490" lon="-87.63416"><ele>181.5</ele></trkpt>
      <trkpt lat="41.89406" lon="-87.63414"><ele>181.5</ele></trkpt>
      <trkpt lat="41.89322" lon="-87.63411"><ele>181.8</ele></trkpt>
      <trkpt lat="41.89238" lon="-87.63409"><ele>181.8</ele></trkpt>
      <trkpt lat="41.89154" lon="-87.63406"><ele>181.8</ele></trkpt>
      <trkpt lat="41.89070" lon="-87.63404"><ele>181.8</ele></trkpt>
      <trkpt lat="41.88997" lon="-87.63403"><ele>181.9</ele></trkpt>
      <trkpt lat="41.88925" lon="-87.63403"><ele>182.9</ele></trkpt>
      <trkpt lat="41.88848" lon="-87.63401"><ele>184.3</ele></trkpt>
      <trkpt lat="41.88771" lon="-87.63400"><ele>184.4</ele></trkpt>
      <trkpt lat="41.88694" lon="-87.63398"><ele>182.7</ele></trkpt>
      <trkpt lat="41.88694" lon="-87.63464"><ele>183.1</ele></trkpt>
      <trkpt lat="41.88694" lon="-87.63530"><ele>183.3</ele></trkpt>
      <trkpt lat="41.88690" lon="-87.63544"><ele>183.5</ele></trkpt>
      <trkpt lat="41.88684" lon="-87.63559"><ele>183.5</ele></trkpt>
      <trkpt lat="41.88667" lon="-87.63559"><ele>183.8</ele></trkpt>
      <trkpt lat="41.88636" lon="-87.63611"><ele>184.3</ele></trkpt>
      <trkpt lat="41.88605" lon="-87.63657"><ele>184.1</ele></trkpt>
      <trkpt lat="41.88596" lon="-87.63665"><ele>183.8</ele></trkpt>
      <trkpt lat="41.88582" lon="-87.63672"><ele>183.8</ele></trkpt>
      <trkpt lat="41.88563" lon="-87.63678"><ele>183.8</ele></trkpt>
      <trkpt lat="41.88509" lon="-87.63684"><ele>184.0</ele></trkpt>
      <trkpt lat="41.88437" lon="-87.63685"><ele>183.5</ele></trkpt>
      <trkpt lat="41.88437" lon="-87.63709"><ele>182.6</ele></trkpt>
      <trkpt lat="41.88382" lon="-87.63708"><ele>182.6</ele></trkpt>
      <trkpt lat="41.88294" lon="-87.63706"><ele>183.6</ele></trkpt>
      <trkpt lat="41.88206" lon="-87.63704"><ele>183.8</ele></trkpt>
      <trkpt lat="41.88119" lon="-87.63701"><ele>184.0</ele></trkpt>
      <trkpt lat="41.88031" lon="-87.63699"><ele>183.6</ele></trkpt>
      <trkpt lat="41.87943" lon="-87.63697"><ele>184.3</ele></trkpt>
      <trkpt lat="41.87943" lon="-87.63707"><ele>184.1</ele></trkpt>
      <trkpt lat="41.87935" lon="-87.63707"><ele>184.5</ele></trkpt>
      <trkpt lat="41.87933" lon="-87.63790"><ele>185.0</ele></trkpt>
      <trkpt lat="41.87932" lon="-87.63872"><ele>187.1</ele></trkpt>
      <trkpt lat="41.87930" lon="-87.63955"><ele>187.3</ele></trkpt>
      <trkpt lat="41.87929" lon="-87.64056"><ele>184.8</ele></trkpt>
      <trkpt lat="41.87929" lon="-87.64156"><ele>184.2</ele></trkpt>
      <trkpt lat="41.87928" lon="-87.64257"><ele>183.9</ele></trkpt>
      <trkpt lat="41.87926" lon="-87.64377"><ele>183.6</ele></trkpt>
      <trkpt lat="41.87924" lon="-87.64496"><ele>183.6</ele></trkpt>
      <trkpt lat="41.87924" lon="-87.64564"><ele>185.0</ele></trkpt>
      <trkpt lat="41.87924" lon="-87.64632"><ele>184.6</ele></trkpt>
      <trkpt lat="41.87922" lon="-87.64750"><ele>183.1</ele></trkpt>
      <trkpt lat="41.87920" lon="-87.64867"><ele>183.4</ele></trkpt>
      <trkpt lat="41.87918" lon="-87.64985"><ele>183.1</ele></trkpt>
      <trkpt lat="41.87916" lon="-87.65102"><ele>183.4</ele></trkpt>
      <trkpt lat="41.87914" lon="-87.65220"><ele>183.2</ele></trkpt>
      <trkpt lat="41.87911" lon="-87.65337"><ele>183.4</ele></trkpt>
      <trkpt lat="41.87909" lon="-87.65455"><ele>183.5</ele></trkpt>
      <trkpt lat="41.87907" lon="-87.65572"><ele>183.4</ele></trkpt>
      <trkpt lat="41.87905" lon="-87.65690"><ele>183.2</ele></trkpt>
      <trkpt lat="41.87903" lon="-87.65807"><ele>183.1</ele></trkpt>
      <trkpt lat="41.87901" lon="-87.65920"><ele>183.1</ele></trkpt>
      <trkpt lat="41.87899" lon="-87.66034"><ele>183.0</ele></trkpt>
      <trkpt lat="41.87897" lon="-87.66147"><ele>183.0</ele></trkpt>
      <trkpt lat="41.87895" lon="-87.66260"><ele>183.1</ele></trkpt>
      <trkpt lat="41.87894" lon="-87.66374"><ele>183.0</ele></trkpt>
      <trkpt lat="41.87892" lon="-87.66487"><ele>182.9</ele></trkpt>
      <trkpt lat="41.87890" lon="-87.66600"><ele>182.9</ele></trkpt>
      <trkpt lat="41.87888" lon="-87.66713"><ele>182.6</ele></trkpt>
      <trkpt lat="41.87886" lon="-87.66827"><ele>182.6</ele></trkpt>
      <trkpt lat="41.87884" lon="-87.66940"><ele>182.4</ele></trkpt>
      <trkpt lat="41.87882" lon="-87.67058"><ele>182.3</ele></trkpt>
      <trkpt lat="41.87881" lon="-87.67176"><ele>182.3</ele></trkpt>
      <trkpt lat="41.87879" lon="-87.67294"><ele>182.2</ele></trkpt>
      <trkpt lat="41.87877" lon="-87.67411"><ele>182.3</ele></trkpt>
      <trkpt lat="41.87876" lon="-87.67529"><ele>182.2</ele></trkpt>
      <trkpt lat="41.87874" lon="-87.67647"><ele>181.8</ele></trkpt>
      <trkpt lat="41.87810" lon="-87.67645"><ele>181.7</ele></trkpt>
      <trkpt lat="41.87747" lon="-87.67643"><ele>181.8</ele></trkpt>
      <trkpt lat="41.87749" lon="-87.67552"><ele>182.0</ele></trkpt>
      <trkpt lat="41.87750" lon="-87.67460"><ele>181.9</ele></trkpt>
      <trkpt lat="41.87752" lon="-87.67369"><ele>181.7</ele></trkpt>
      <trkpt lat="41.87754" lon="-87.67254"><ele>181.7</ele></trkpt>
      <trkpt lat="41.87756" lon="-87.67138"><ele>181.5</ele></trkpt>
      <trkpt lat="41.87758" lon="-87.67023"><ele>181.3</ele></trkpt>
      <trkpt lat="41.87759" lon="-87.66908"><ele>181.3</ele></trkpt>
      <trkpt lat="41.87761" lon="-87.66793"><ele>181.7</ele></trkpt>
      <trkpt lat="41.87763" lon="-87.66677"><ele>181.6</ele></trkpt>
      <trkpt lat="41.87765" lon="-87.66562"><ele>181.5</ele></trkpt>
      <trkpt lat="41.87767" lon="-87.66447"><ele>181.5</ele></trkpt>
      <trkpt lat="41.87769" lon="-87.66331"><ele>181.8</ele></trkpt>
      <trkpt lat="41.87771" lon="-87.66216"><ele>181.7</ele></trkpt>
      <trkpt lat="41.87772" lon="-87.66101"><ele>181.6</ele></trkpt>
      <trkpt lat="41.87774" lon="-87.65986"><ele>181.5</ele></trkpt>
      <trkpt lat="41.87776" lon="-87.65870"><ele>181.8</ele></trkpt>
      <trkpt lat="41.87778" lon="-87.65755"><ele>181.8</ele></trkpt>
      <trkpt lat="41.87780" lon="-87.65640"><ele>181.9</ele></trkpt>
      <trkpt lat="41.87782" lon="-87.65524"><ele>181.9</ele></trkpt>
      <trkpt lat="41.87784" lon="-87.65409"><ele>181.7</ele></trkpt>
      <trkpt lat="41.87785" lon="-87.65294"><ele>181.8</ele></trkpt>
      <trkpt lat="41.87787" lon="-87.65179"><ele>181.7</ele></trkpt>
      <trkpt lat="41.87789" lon="-87.65063"><ele>181.6</ele></trkpt>
      <trkpt lat="41.87791" lon="-87.64948"><ele>181.8</ele></trkpt>
      <trkpt lat="41.87793" lon="-87.64842"><ele>182.1</ele></trkpt>
      <trkpt lat="41.87794" lon="-87.64736"><ele>181.8</ele></trkpt>
      <trkpt lat="41.87794" lon="-87.64724"><ele>181.8</ele></trkpt>
      <trkpt lat="41.87708" lon="-87.64722"><ele>182.0</ele></trkpt>
      <trkpt lat="41.87621" lon="-87.64720"><ele>182.3</ele></trkpt>
      <trkpt lat="41.87547" lon="-87.64717"><ele>183.4</ele></trkpt>
      <trkpt lat="41.87473" lon="-87.64715"><ele>182.3</ele></trkpt>
      <trkpt lat="41.87462" lon="-87.64719"><ele>182.3</ele></trkpt>
      <trkpt lat="41.87416" lon="-87.64719"><ele>182.1</ele></trkpt>
      <trkpt lat="41.87326" lon="-87.64716"><ele>182.0</ele></trkpt>
      <trkpt lat="41.87236" lon="-87.64713"><ele>182.0</ele></trkpt>
      <trkpt lat="41.87147" lon="-87.64711"><ele>182.0</ele></trkpt>
      <trkpt lat="41.87057" lon="-87.64708"><ele>182.0</ele></trkpt>
      <trkpt lat="41.86967" lon="-87.64705"><ele>182.0</ele></trkpt>
      <trkpt lat="41.86965" lon="-87.64806"><ele>181.9</ele></trkpt>
      <trkpt lat="41.86963" lon="-87.64907"><ele>182.0</ele></trkpt>
      <trkpt lat="41.86961" lon="-87.65008"><ele>182.1</ele></trkpt>
      <trkpt lat="41.86956" lon="-87.65101"><ele>182.2</ele></trkpt>
      <trkpt lat="41.86950" lon="-87.65112"><ele>182.2</ele></trkpt>
      <trkpt lat="41.86948" lon="-87.65227"><ele>182.4</ele></trkpt>
      <trkpt lat="41.86946" lon="-87.65343"><ele>182.4</ele></trkpt>
      <trkpt lat="41.86944" lon="-87.65458"><ele>182.4</ele></trkpt>
      <trkpt lat="41.86943" lon="-87.65573"><ele>182.4</ele></trkpt>
      <trkpt lat="41.86941" lon="-87.65688"><ele>182.4</ele></trkpt>
      <trkpt lat="41.86939" lon="-87.65804"><ele>182.3</ele></trkpt>
      <trkpt lat="41.86937" lon="-87.65919"><ele>182.3</ele></trkpt>
      <trkpt lat="41.86936" lon="-87.66001"><ele>182.3</ele></trkpt>
      <trkpt lat="41.86934" lon="-87.66083"><ele>182.3</ele></trkpt>
      <trkpt lat="41.86933" lon="-87.66165"><ele>182.2</ele></trkpt>
      <trkpt lat="41.86933" lon="-87.66153"><ele>182.3</ele></trkpt>
      <trkpt lat="41.86933" lon="-87.66165"><ele>182.2</ele></trkpt>
      <trkpt lat="41.86874" lon="-87.66163"><ele>182.4</ele></trkpt>
      <trkpt lat="41.86816" lon="-87.66162"><ele>182.3</ele></trkpt>
      <trkpt lat="41.86760" lon="-87.66159"><ele>182.3</ele></trkpt>
      <trkpt lat="41.86705" lon="-87.66157"><ele>182.2</ele></trkpt>
      <trkpt lat="41.86622" lon="-87.66155"><ele>182.2</ele></trkpt>
      <trkpt lat="41.86539" lon="-87.66153"><ele>182.1</ele></trkpt>
      <trkpt lat="41.86456" lon="-87.66151"><ele>182.0</ele></trkpt>
      <trkpt lat="41.86374" lon="-87.66148"><ele>181.8</ele></trkpt>
      <trkpt lat="41.86291" lon="-87.66146"><ele>181.9</ele></trkpt>
      <trkpt lat="41.86208" lon="-87.66144"><ele>181.7</ele></trkpt>
      <trkpt lat="41.86125" lon="-87.66142"><ele>181.7</ele></trkpt>
      <trkpt lat="41.86042" lon="-87.66140"><ele>180.9</ele></trkpt>
      <trkpt lat="41.85957" lon="-87.66137"><ele>181.3</ele></trkpt>
      <trkpt lat="41.85872" lon="-87.66134"><ele>182.0</ele></trkpt>
      <trkpt lat="41.85787" lon="-87.66131"><ele>182.0</ele></trkpt>
      <trkpt lat="41.85789" lon="-87.66039"><ele>182.0</ele></trkpt>
      <trkpt lat="41.85790" lon="-87.65947"><ele>182.0</ele></trkpt>
      <trkpt lat="41.85792" lon="-87.65855"><ele>182.0</ele></trkpt>
      <trkpt lat="41.85794" lon="-87.65736"><ele>182.1</ele></trkpt>
      <trkpt lat="41.85796" lon="-87.65617"><ele>182.1</ele></trkpt>
      <trkpt lat="41.85797" lon="-87.65498"><ele>182.0</ele></trkpt>
      <trkpt lat="41.85799" lon="-87.65379"><ele>182.1</ele></trkpt>
      <trkpt lat="41.85801" lon="-87.65261"><ele>182.0</ele></trkpt>
      <trkpt lat="41.85803" lon="-87.65142"><ele>182.0</ele></trkpt>
      <trkpt lat="41.85805" lon="-87.65023"><ele>182.0</ele></trkpt>
      <trkpt lat="41.85806" lon="-87.64904"><ele>181.8</ele></trkpt>
      <trkpt lat="41.85808" lon="-87.64785"><ele>181.7</ele></trkpt>
      <trkpt lat="41.85810" lon="-87.64666"><ele>181.7</ele></trkpt>
      <trkpt lat="41.85727" lon="-87.64664"><ele>181.8</ele></trkpt>
      <trkpt lat="41.85644" lon="-87.64661"><ele>181.7</ele></trkpt>
      <trkpt lat="41.85561" lon="-87.64659"><ele>181.8</ele></trkpt>
      <trkpt lat="41.85478" lon="-87.64656"><ele>181.8</ele></trkpt>
      <trkpt lat="41.85395" lon="-87.64654"><ele>181.5</ele></trkpt>
      <trkpt lat="41.85394" lon="-87.64735"><ele>181.5</ele></trkpt>
      <trkpt lat="41.85393" lon="-87.64818"><ele>181.6</ele></trkpt>
      <trkpt lat="41.85381" lon="-87.64851"><ele>181.5</ele></trkpt>
      <trkpt lat="41.85349" lon="-87.64923"><ele>181.2</ele></trkpt>
      <trkpt lat="41.85317" lon="-87.64994"><ele>181.1</ele></trkpt>
      <trkpt lat="41.85289" lon="-87.65056"><ele>180.9</ele></trkpt>
      <trkpt lat="41.85261" lon="-87.65117"><ele>180.6</ele></trkpt>
      <trkpt lat="41.85263" lon="-87.65012"><ele>181.0</ele></trkpt>
      <trkpt lat="41.85265" lon="-87.64907"><ele>180.8</ele></trkpt>
      <trkpt lat="41.85266" lon="-87.64802"><ele>180.9</ele></trkpt>
      <trkpt lat="41.85268" lon="-87.64697"><ele>180.9</ele></trkpt>
      <trkpt lat="41.85270" lon="-87.64592"><ele>181.1</ele></trkpt>
      <trkpt lat="41.85271" lon="-87.64491"><ele>180.9</ele></trkpt>
      <trkpt lat="41.85273" lon="-87.64390"><ele>180.8</ele></trkpt>
      <trkpt lat="41.85274" lon="-87.64288"><ele>180.8</ele></trkpt>
      <trkpt lat="41.85275" lon="-87.64187"><ele>180.6</ele></trkpt>
      <trkpt lat="41.85275" lon="-87.64182"><ele>180.6</ele></trkpt>
      <trkpt lat="41.85271" lon="-87.64172"><ele>180.7</ele></trkpt>
      <trkpt lat="41.85272" lon="-87.64121"><ele>182.2</ele></trkpt>
      <trkpt lat="41.85275" lon="-87.64054"><ele>184.1</ele></trkpt>
      <trkpt lat="41.85278" lon="-87.63987"><ele>183.6</ele></trkpt>
      <trkpt lat="41.85279" lon="-87.63902"><ele>181.3</ele></trkpt>
      <trkpt lat="41.85280" lon="-87.63817"><ele>179.2</ele></trkpt>
      <trkpt lat="41.85281" lon="-87.63732"><ele>179.1</ele></trkpt>
      <trkpt lat="41.85285" lon="-87.63680"><ele>179.2</ele></trkpt>
      <trkpt lat="41.85287" lon="-87.63607"><ele>180.6</ele></trkpt>
      <trkpt lat="41.85288" lon="-87.63517"><ele>181.6</ele></trkpt>
      <trkpt lat="41.85286" lon="-87.63483"><ele>181.7</ele></trkpt>
      <trkpt lat="41.85281" lon="-87.63415"><ele>181.7</ele></trkpt>
      <trkpt lat="41.85276" lon="-87.63347"><ele>181.6</ele></trkpt>
      <trkpt lat="41.85277" lon="-87.63276"><ele>181.6</ele></trkpt>
      <trkpt lat="41.85278" lon="-87.63204"><ele>181.6</ele></trkpt>
      <trkpt lat="41.85200" lon="-87.63202"><ele>181.6</ele></trkpt>
      <trkpt lat="41.85122" lon="-87.63199"><ele>181.7</ele></trkpt>
      <trkpt lat="41.85045" lon="-87.63197"><ele>181.7</ele></trkpt>
      <trkpt lat="41.84967" lon="-87.63194"><ele>181.7</ele></trkpt>
      <trkpt lat="41.84889" lon="-87.63192"><ele>181.8</ele></trkpt>
      <trkpt lat="41.84870" lon="-87.63196"><ele>181.8</ele></trkpt>
      <trkpt lat="41.84832" lon="-87.63196"><ele>181.9</ele></trkpt>
      <trkpt lat="41.84812" lon="-87.63200"><ele>181.9</ele></trkpt>
      <trkpt lat="41.84775" lon="-87.63215"><ele>182.2</ele></trkpt>
      <trkpt lat="41.84753" lon="-87.63221"><ele>182.7</ele></trkpt>
      <trkpt lat="41.84729" lon="-87.63223"><ele>182.7</ele></trkpt>
      <trkpt lat="41.84647" lon="-87.63213"><ele>181.7</ele></trkpt>
      <trkpt lat="41.84561" lon="-87.63191"><ele>181.6</ele></trkpt>
      <trkpt lat="41.84562" lon="-87.63182"><ele>181.6</ele></trkpt>
      <trkpt lat="41.84552" lon="-87.63179"><ele>181.7</ele></trkpt>
      <trkpt lat="41.84554" lon="-87.63063"><ele>181.6</ele></trkpt>
      <trkpt lat="41.84555" lon="-87.62946"><ele>181.1</ele></trkpt>
      <trkpt lat="41.84557" lon="-87.62830"><ele>181.8</ele></trkpt>
      <trkpt lat="41.84558" lon="-87.62714"><ele>182.1</ele></trkpt>
      <trkpt lat="41.84560" lon="-87.62598"><ele>182.3</ele></trkpt>
      <trkpt lat="41.84561" lon="-87.62481"><ele>182.4</ele></trkpt>
      <trkpt lat="41.84563" lon="-87.62365"><ele>182.6</ele></trkpt>
      <trkpt lat="41.84499" lon="-87.62362"><ele>182.5</ele></trkpt>
      <trkpt lat="41.84435" lon="-87.62360"><ele>182.4</ele></trkpt>
      <trkpt lat="41.84363" lon="-87.62359"><ele>182.5</ele></trkpt>
      <trkpt lat="41.84291" lon="-87.62358"><ele>182.5</ele></trkpt>
      <trkpt lat="41.84218" lon="-87.62357"><ele>182.7</ele></trkpt>
      <trkpt lat="41.84146" lon="-87.62356"><ele>182.7</ele></trkpt>
      <trkpt lat="41.84064" lon="-87.62353"><ele>182.9</ele></trkpt>
      <trkpt lat="41.83982" lon="-87.62350"><ele>182.9</ele></trkpt>
      <trkpt lat="41.83900" lon="-87.62347"><ele>183.0</ele></trkpt>
      <trkpt lat="41.83817" lon="-87.62345"><ele>183.2</ele></trkpt>
      <trkpt lat="41.83735" lon="-87.62342"><ele>183.2</ele></trkpt>
      <trkpt lat="41.83653" lon="-87.62339"><ele>183.1</ele></trkpt>
      <trkpt lat="41.83580" lon="-87.62337"><ele>183.0</ele></trkpt>
      <trkpt lat="41.83507" lon="-87.62335"><ele>182.9</ele></trkpt>
      <trkpt lat="41.83434" lon="-87.62334"><ele>182.8</ele></trkpt>
      <trkpt lat="41.83361" lon="-87.62332"><ele>182.8</ele></trkpt>
      <trkpt lat="41.83288" lon="-87.62330"><ele>182.9</ele></trkpt>
      <trkpt lat="41.83201" lon="-87.62327"><ele>182.8</ele></trkpt>
      <trkpt lat="41.83114" lon="-87.62325"><ele>182.7</ele></trkpt>
      <trkpt lat="41.83115" lon="-87.62251"><ele>182.7</ele></trkpt>
      <trkpt lat="41.83115" lon="-87.62176"><ele>182.6</ele></trkpt>
      <trkpt lat="41.83197" lon="-87.62178"><ele>182.8</ele></trkpt>
      <trkpt lat="41.83278" lon="-87.62179"><ele>183.1</ele></trkpt>
      <trkpt lat="41.83360" lon="-87.62181"><ele>183.3</ele></trkpt>
      <trkpt lat="41.83441" lon="-87.62183"><ele>183.7</ele></trkpt>
      <trkpt lat="41.83523" lon="-87.62185"><ele>183.9</ele></trkpt>
      <trkpt lat="41.83604" lon="-87.62186"><ele>184.1</ele></trkpt>
      <trkpt lat="41.83686" lon="-87.62188"><ele>184.2</ele></trkpt>
      <trkpt lat="41.83761" lon="-87.62190"><ele>184.1</ele></trkpt>
      <trkpt lat="41.83836" lon="-87.62192"><ele>183.9</ele></trkpt>
      <trkpt lat="41.83844" lon="-87.62198"><ele>183.8</ele></trkpt>
      <trkpt lat="41.83850" lon="-87.62210"><ele>183.8</ele></trkpt>
      <trkpt lat="41.83853" lon="-87.62230"><ele>183.9</ele></trkpt>
      <trkpt lat="41.83855" lon="-87.62272"><ele>183.9</ele></trkpt>
      <trkpt lat="41.83857" lon="-87.62286"><ele>183.9</ele></trkpt>
      <trkpt lat="41.83863" lon="-87.62299"><ele>183.9</ele></trkpt>
      <trkpt lat="41.83872" lon="-87.62310"><ele>183.9</ele></trkpt>
      <trkpt lat="41.83882" lon="-87.62319"><ele>183.9</ele></trkpt>
      <trkpt lat="41.83893" lon="-87.62322"><ele>183.9</ele></trkpt>
      <trkpt lat="41.83906" lon="-87.62324"><ele>183.9</ele></trkpt>
      <trkpt lat="41.83986" lon="-87.62326"><ele>183.8</ele></trkpt>
      <trkpt lat="41.84066" lon="-87.62328"><ele>183.8</ele></trkpt>
      <trkpt lat="41.84137" lon="-87.62330"><ele>183.7</ele></trkpt>
      <trkpt lat="41.84207" lon="-87.62333"><ele>183.8</ele></trkpt>
      <trkpt lat="41.84294" lon="-87.62335"><ele>183.6</ele></trkpt>
      <trkpt lat="41.84382" lon="-87.62337"><ele>183.6</ele></trkpt>
      <trkpt lat="41.84469" lon="-87.62339"><ele>183.4</ele></trkpt>
      <trkpt lat="41.84556" lon="-87.62341"><ele>183.4</ele></trkpt>
      <trkpt lat="41.84606" lon="-87.62343"><ele>183.4</ele></trkpt>
      <trkpt lat="41.84658" lon="-87.62351"><ele>183.1</ele></trkpt>
      <trkpt lat="41.84694" lon="-87.62355"><ele>183.0</ele></trkpt>
      <trkpt lat="41.84733" lon="-87.62358"><ele>183.0</ele></trkpt>
      <trkpt lat="41.84748" lon="-87.62367"><ele>183.1</ele></trkpt>
      <trkpt lat="41.84808" lon="-87.62369"><ele>183.6</ele></trkpt>
      <trkpt lat="41.84868" lon="-87.62370"><ele>183.3</ele></trkpt>
      <trkpt lat="41.84928" lon="-87.62372"><ele>183.4</ele></trkpt>
      <trkpt lat="41.85011" lon="-87.62374"><ele>183.6</ele></trkpt>
      <trkpt lat="41.85095" lon="-87.62376"><ele>183.5</ele></trkpt>
      <trkpt lat="41.85178" lon="-87.62378"><ele>183.6</ele></trkpt>
      <trkpt lat="41.85262" lon="-87.62380"><ele>183.7</ele></trkpt>
      <trkpt lat="41.85345" lon="-87.62382"><ele>183.7</ele></trkpt>
      <trkpt lat="41.85429" lon="-87.62384"><ele>183.9</ele></trkpt>
      <trkpt lat="41.85512" lon="-87.62387"><ele>183.8</ele></trkpt>
      <trkpt lat="41.85595" lon="-87.62389"><ele>183.9</ele></trkpt>
      <trkpt lat="41.85679" lon="-87.62391"><ele>184.0</ele></trkpt>
      <trkpt lat="41.85762" lon="-87.62393"><ele>184.1</ele></trkpt>
      <trkpt lat="41.85846" lon="-87.62395"><ele>184.6</ele></trkpt>
      <trkpt lat="41.85929" lon="-87.62397"><ele>184.7</ele></trkpt>
      <trkpt lat="41.86011" lon="-87.62399"><ele>184.6</ele></trkpt>
      <trkpt lat="41.86093" lon="-87.62401"><ele>184.6</ele></trkpt>
      <trkpt lat="41.86175" lon="-87.62403"><ele>184.8</ele></trkpt>
      <trkpt lat="41.86257" lon="-87.62405"><ele>184.8</ele></trkpt>
      <trkpt lat="41.86340" lon="-87.62407"><ele>185.0</ele></trkpt>
      <trkpt lat="41.86422" lon="-87.62409"><ele>184.8</ele></trkpt>
      <trkpt lat="41.86504" lon="-87.62411"><ele>184.9</ele></trkpt>
      <trkpt lat="41.86586" lon="-87.62413"><ele>185.2</ele></trkpt>
      <trkpt lat="41.86668" lon="-87.62415"><ele>185.3</ele></trkpt>
      <trkpt lat="41.86750" lon="-87.62417"><ele>185.2</ele></trkpt>
      <trkpt lat="41.86751" lon="-87.62362"><ele>185.6</ele></trkpt>
      <trkpt lat="41.86751" lon="-87.62394"><ele>184.6</ele></trkpt>
      <trkpt lat="41.86751" lon="-87.62330"><ele>186.3</ele></trkpt>
      <trkpt lat="41.86755" lon="-87.62262"><ele>188.2</ele></trkpt>
      <trkpt lat="41.86758" lon="-87.62194"><ele>190.0</ele></trkpt>
      <trkpt lat="41.86758" lon="-87.62145"><ele>191.5</ele></trkpt>
      <trkpt lat="41.86760" lon="-87.62043"><ele>191.2</ele></trkpt>
      <trkpt lat="41.86769" lon="-87.62046"><ele>189.3</ele></trkpt>
      <trkpt lat="41.86814" lon="-87.62048"><ele>187.1</ele></trkpt>
      <trkpt lat="41.86859" lon="-87.62050"><ele>186.0</ele></trkpt>
      <trkpt lat="41.86929" lon="-87.62052"><ele>184.9</ele></trkpt>
      <trkpt lat="41.86999" lon="-87.62054"><ele>184.5</ele></trkpt>
    </trkseg>
  </trk>
</gpx>
